TIANMU-1 12             
1 58646U 23205B   25218.62419219  .00004728  00000+0  20642-3 0  9990
2 58646  97.3699 240.4323 0008573  34.7008 325.4786 15.22575999 89575
TIANMU-1 13             
1 58647U 23205C   25218.59213330  .00004729  00000+0  20665-3 0  9999
2 58647  97.3727 240.5532 0007984  14.9513 345.1958 15.22551711 89562
TIANMU-1 14             
1 58648U 23205D   25218.57468071  .00004575  00000+0  19984-3 0  9993
2 58648  97.3657 240.0043 0009165  18.4167 341.7400 15.22570456 89565
TIANMU-1 19             
1 58660U 23208A   25218.56694876  .00005884  00000+0  23977-3 0  9994
2 58660  97.4314 330.2528 0005405   4.9409 355.1881 15.24837949 89277
TIANMU-1 20             
1 58661U 23208B   25218.58845544  .00006172  00000+0  24239-3 0  9990
2 58661  97.4251 330.5957 0008074  10.4229 349.7175 15.26042327 89336
TIANMU-1 21             
1 58662U 23208C   25218.57918743  .00006781  00000+0  25027-3 0  9994
2 58662  97.4294 331.9779 0007495   7.6387 352.4965 15.28072850 89402
TIANMU-1 22             
1 58663U 23208D   25218.55493052  .00005519  00000+0  22545-3 0  9994
2 58663  97.4310 330.3370 0004654  32.6011 327.5513 15.24783059 89282
TIANMU-1 15             
1 58700U 24004A   25218.64199485  .00004775  00000+0  20926-3 0  9998
2 58700  97.4665  40.7585 0007330  32.2964 327.8720 15.22463486 87844
TIANMU-1 16             
1 58701U 24004B   25218.62497756  .00004528  00000+0  19832-3 0  9999
2 58701  97.4600  40.2413 0007784  36.6102 323.5665 15.22505476 87841
TIANMU-1 17             
1 58702U 24004C   25218.60532956  .00004607  00000+0  20081-3 0  9996
2 58702  97.4638  40.5821 0006506  39.9103 320.2611 15.22666519 87837
TIANMU-1 18             
1 58703U 24004D   25218.65701722  .00004601  00000+0  20124-3 0  9993
2 58703  97.4656  40.7926 0006088  29.8935 330.2648 15.22557306 87847
INSAT-3DS               
1 58990U 24033A   25217.68904885 -.00000149  00000+0  00000+0 0  9991
2 58990   0.0510 258.8521 0001336 235.1178 150.6354  1.00272779 43905
METEOR-M2 4             
1 59051U 24039A   25218.60845223  .00000007  00000+0  22879-4 0  9994
2 59051  98.6533 177.6793 0007268  10.3208 349.8118 14.22374042 74546
GOES 19                 
1 60133U 24119A   25217.52967544 -.00000240  00000+0  00000+0 0  9994
2 60133   0.0077  60.2100 0000154 150.3860 219.2108  1.00272579  3796
